CCSDS_OMM_VERS = 2.0
CREATION_DATE  = 
ORIGINATOR     = 

OBJECT_NAME    = XRISM
OBJECT_ID      = 2023-137A
CENTER_NAME    = EARTH
REF_FRAME      = TEME
TIME_SYSTEM    = UTC
MEAN_ELEMENT_THEORY = SGP/SGP4

EPOCH          = 2026-03-23T23:16:39.231264
MEAN_MOTION    = 15.11658756
ECCENTRICITY   = .00079496
INCLINATION    = 31.0011
RA_OF_ASC_NODE = 191.2852
ARG_OF_PERICENTER = 183.2958
MEAN_ANOMALY   = 176.7629

EPHEMERIS_TYPE = 0
CLASSIFICATION_TYPE = U
NORAD_CAT_ID   = 57800
ELEMENT_SET_NO = 999
REV_AT_EPOCH   = 13995
BSTAR          = .33946295E-3
MEAN_MOTION_DOT = .6019E-4
MEAN_MOTION_DDOT = 0

CCSDS_OMM_VERS = 2.0
CREATION_DATE  = 
ORIGINATOR     = 

OBJECT_NAME    = ACS3
OBJECT_ID      = 2024-077B
CENTER_NAME    = EARTH
REF_FRAME      = TEME
TIME_SYSTEM    = UTC
MEAN_ELEMENT_THEORY = SGP/SGP4

EPOCH          = 2026-03-24T02:40:20.313408
MEAN_MOTION    = 13.90240183
ECCENTRICITY   = .00704967
INCLINATION    = 97.1997
RA_OF_ASC_NODE = 20.9824
ARG_OF_PERICENTER = 43.0107
MEAN_ANOMALY   = 317.6538

EPHEMERIS_TYPE = 0
CLASSIFICATION_TYPE = U
NORAD_CAT_ID   = 59588
ELEMENT_SET_NO = 999
REV_AT_EPOCH   = 9620
BSTAR          = .14397859E-1
MEAN_MOTION_DOT = .18196E-3
MEAN_MOTION_DDOT = 0

CCSDS_OMM_VERS = 2.0
CREATION_DATE  = 
ORIGINATOR     = 

OBJECT_NAME    = SZ-21 MODULE
OBJECT_ID      = 2025-246C
CENTER_NAME    = EARTH
REF_FRAME      = TEME
TIME_SYSTEM    = UTC
MEAN_ELEMENT_THEORY = SGP/SGP4

EPOCH          = 2026-03-23T04:26:13.491168
MEAN_MOTION    = 15.69572241
ECCENTRICITY   = .00006541
INCLINATION    = 41.4734
RA_OF_ASC_NODE = 120.2206
ARG_OF_PERICENTER = 218.7155
MEAN_ANOMALY   = 141.3640

EPHEMERIS_TYPE = 0
CLASSIFICATION_TYPE = U
NORAD_CAT_ID   = 66515
ELEMENT_SET_NO = 999
REV_AT_EPOCH   = 2019
BSTAR          = .35990835E-3
MEAN_MOTION_DOT = .43706E-3
MEAN_MOTION_DDOT = 0

