XRISM                   
1 57800U 23137A   26082.96989851  .00006019  00000+0  33946-3 0  9992
2 57800  31.0011 191.2852 0007949 183.2958 176.7629 15.11658756139951
ACS3                    
1 59588U 24077B   26083.11134622  .00018196  00000+0  14398-1 0  9994
2 59588  97.1997  20.9824 0070496  43.0107 317.6538 13.90240183 96206
SZ-21 MODULE            
1 66515U 25246C   26082.18487837  .00043706  00000+0  35991-3 0  9995
2 66515  41.4734 120.2206 0000654 218.7155 141.3640 15.69572241 20198
